start=new Date('2022-09-05T00:00:00.000Z').valueOf();
sats=[{"ARG_OF_PERICENTER":"74.4671","MEAN_ANOMALY":"285.6479","TIME_SYSTEM":"UTC","RA_OF_ASC_NODE":"226.8191","INCLINATION":"53.0537","ECCENTRICITY":"0.00014600","EPOCH":"2022-09-04T16:10:31.187712","PERIOD":"95.592","SITE":"AFETR","LAUNCH_DATE":"2021-03-11","NORAD_CAT_ID":"47789","DECAY_DATE":null,"OBJECT_NAME":"STARLINK-2315","TLE_LINE1":"1 47789U 21018C   22247.67397208  .00003020  00000-0  22154-3 0  9998","OBJECT_TYPE":"PAYLOAD","CENTER_NAME":"EARTH","GP_ID":"211750377","FILE":"3558394","APOAPSIS":"548.207","COUNTRY_CODE":"US","OBJECT_ID":"2021-018C","PERIAPSIS":"546.184","CLASSIFICATION_TYPE":"U","MEAN_ELEMENT_THEORY":"SGP4","REF_FRAME":"TEME","SEMIMAJOR_AXIS":"6925.330","RCS_SIZE":"LARGE","TLE_LINE2":"2 47789  53.0537 226.8191 0001460  74.4671 285.6479 15.06405892 83652","REV_AT_EPOCH":"8365","MEAN_MOTION_DDOT":"0.0000000000000","BSTAR":"0.00022154000000","EPHEMERIS_TYPE":"0","MEAN_MOTION_DOT":"0.00003020","MEAN_MOTION":"15.06405892","ELEMENT_SET_NO":"999"},{"RCS_SIZE":"LARGE","CLASSIFICATION_TYPE":"U","PERIAPSIS":"546.098","MEAN_ELEMENT_THEORY":"SGP4","REF_FRAME":"TEME","SEMIMAJOR_AXIS":"6925.308","ELEMENT_SET_NO":"999","MEAN_MOTION":"15.06413155","MEAN_MOTION_DOT":"0.00001790","TLE_LINE2":"2 47790  53.0533 216.9273 0001553  70.5769 289.5387 15.06413155 83796","REV_AT_EPOCH":"8379","BSTAR":"0.00013897000000","MEAN_MOTION_DDOT":"0.0000000000000","EPHEMERIS_TYPE":"0","OBJECT_TYPE":"PAYLOAD","TLE_LINE1":"1 47790U 21018D   22247.64908829  .00001790  00000-0  13897-3 0  9990","OBJECT_NAME":"STARLINK-2319","CENTER_NAME":"EARTH","NORAD_CAT_ID":"47790","DECAY_DATE":null,"APOAPSIS":"548.249","COUNTRY_CODE":"US","OBJECT_ID":"2021-018D","GP_ID":"211751615","FILE":"3558394","INCLINATION":"53.0533","ECCENTRICITY":"0.00015530","EPOCH":"2022-09-04T15:34:41.228256","LAUNCH_DATE":"2021-03-11","PERIOD":"95.591","SITE":"AFETR","ARG_OF_PERICENTER":"70.5769","RA_OF_ASC_NODE":"216.9273","MEAN_ANOMALY":"289.5387","TIME_SYSTEM":"UTC"},{"ARG_OF_PERICENTER":"74.8150","MEAN_ANOMALY":"285.3003","TIME_SYSTEM":"UTC","RA_OF_ASC_NODE":"248.6134","INCLINATION":"53.0533","ECCENTRICITY":"0.00014830","EPOCH":"2022-09-04T06:29:20.588352","SITE":"AFETR","PERIOD":"95.592","LAUNCH_DATE":"2021-03-11","DECAY_DATE":null,"NORAD_CAT_ID":"47791","TLE_LINE1":"1 47791U 21018E   22247.27037718  .00002086  00000-0  15892-3 0  9996","OBJECT_TYPE":"PAYLOAD","OBJECT_NAME":"STARLINK-2322","CENTER_NAME":"EARTH","GP_ID":"211717063","FILE":"3557975","OBJECT_ID":"2021-018E","APOAPSIS":"548.244","COUNTRY_CODE":"US","REF_FRAME":"TEME","SEMIMAJOR_AXIS":"6925.351","CLASSIFICATION_TYPE":"U","PERIAPSIS":"546.189","MEAN_ELEMENT_THEORY":"SGP4","RCS_SIZE":"LARGE","EPHEMERIS_TYPE":"0","REV_AT_EPOCH":"8331","TLE_LINE2":"2 47791  53.0533 248.6134 0001483  74.8150 285.3003 15.06399047 83318","MEAN_MOTION_DDOT":"0.0000000000000","BSTAR":"0.00015892000000","ELEMENT_SET_NO":"999","MEAN_MOTION_DOT":"0.00002086","MEAN_MOTION":"15.06399047"},{"TLE_LINE1":"1 47792U 21018F   22247.34961544  .00000087  00000-0  24718-4 0  9995","CENTER_NAME":"EARTH","OBJECT_TYPE":"PAYLOAD","OBJECT_NAME":"STARLINK-2334","NORAD_CAT_ID":"47792","DECAY_DATE":null,"APOAPSIS":"548.419","COUNTRY_CODE":"US","OBJECT_ID":"2021-018F","GP_ID":"211717314","FILE":"3557975","RCS_SIZE":"LARGE","PERIAPSIS":"546.006","CLASSIFICATION_TYPE":"U","MEAN_ELEMENT_THEORY":"SGP4","REF_FRAME":"TEME","SEMIMAJOR_AXIS":"6925.347","MEAN_MOTION_DOT":"0.00000087","ELEMENT_SET_NO":"999","MEAN_MOTION":"15.06400356","TLE_LINE2":"2 47792  53.0546 228.2760 0001742  58.6286 301.4873 15.06400356 83603","REV_AT_EPOCH":"8360","MEAN_MOTION_DDOT":"0.0000000000000","BSTAR":"0.00002471800000","EPHEMERIS_TYPE":"0","ARG_OF_PERICENTER":"58.6286","RA_OF_ASC_NODE":"228.2760","MEAN_ANOMALY":"301.4873","TIME_SYSTEM":"UTC","INCLINATION":"53.0546","ECCENTRICITY":"0.00017420","EPOCH":"2022-09-04T08:23:26.774016","LAUNCH_DATE":"2021-03-11","PERIOD":"95.592","SITE":"AFETR"},{"INCLINATION":"53.0531","ECCENTRICITY":"0.00015150","EPOCH":"2022-09-04T10:20:13.476192","LAUNCH_DATE":"2021-03-11","SITE":"AFETR","PERIOD":"95.591","ARG_OF_PERICENTER":"67.0402","RA_OF_ASC_NODE":"227.9142","MEAN_ANOMALY":"293.0746","TIME_SYSTEM":"UTC","RCS_SIZE":"LARGE","REF_FRAME":"TEME","SEMIMAJOR_AXIS":"6925.290","PERIAPSIS":"546.106","CLASSIFICATION_TYPE":"U","MEAN_ELEMENT_THEORY":"SGP4","ELEMENT_SET_NO":"999","MEAN_MOTION_DOT":"0.00006080","MEAN_MOTION":"15.06418953","EPHEMERIS_TYPE":"0","REV_AT_EPOCH":"8360","TLE_LINE2":"2 47793  53.0531 227.9142 0001515  67.0402 293.0746 15.06418953 83607","MEAN_MOTION_DDOT":"0.0000000000000","BSTAR":"0.00042650000000","TLE_LINE1":"1 47793U 21018G   22247.43071153  .00006080  00000-0  42650-3 0  9997","OBJECT_TYPE":"PAYLOAD","OBJECT_NAME":"STARLINK-2338","CENTER_NAME":"EARTH","DECAY_DATE":null,"NORAD_CAT_ID":"47793","OBJECT_ID":"2021-018G","APOAPSIS":"548.205","COUNTRY_CODE":"US","GP_ID":"211718056","FILE":"3557975"},{"TLE_LINE1":"1 47794U 21018H   22247.16900136 -.00000734  00000-0 -30328-4 0  9992","OBJECT_TYPE":"PAYLOAD","CENTER_NAME":"EARTH","OBJECT_NAME":"STARLINK-2341","DECAY_DATE":null,"NORAD_CAT_ID":"47794","OBJECT_ID":"2021-018H","COUNTRY_CODE":"US","APOAPSIS":"548.707","FILE":"3557975","GP_ID":"211716313","RCS_SIZE":"LARGE","SEMIMAJOR_AXIS":"6925.313","REF_FRAME":"TEME","MEAN_ELEMENT_THEORY":"SGP4","CLASSIFICATION_TYPE":"U","PERIAPSIS":"545.649","MEAN_MOTION":"15.06411631","ELEMENT_SET_NO":"999","MEAN_MOTION_DOT":"-0.00000734","EPHEMERIS_TYPE":"0","MEAN_MOTION_DDOT":"0.0000000000000","BSTAR":"-0.00003032800000","REV_AT_EPOCH":"8357","TLE_LINE2":"2 47794  53.0542 229.0890 0002208  69.4600 290.6625 15.06411631 83570","ARG_OF_PERICENTER":"69.4600","RA_OF_ASC_NODE":"229.0890","TIME_SYSTEM":"UTC","MEAN_ANOMALY":"290.6625","ECCENTRICITY":"0.00022080","EPOCH":"2022-09-04T04:03:21.717504","INCLINATION":"53.0542","LAUNCH_DATE":"2021-03-11","SITE":"AFETR","PERIOD":"95.591"},{"MEAN_ELEMENT_THEORY":"SGP4","PERIAPSIS":"546.156","CLASSIFICATION_TYPE":"U","SEMIMAJOR_AXIS":"6925.321","REF_FRAME":"TEME","RCS_SIZE":"LARGE","MEAN_MOTION_DDOT":"0.0000000000000","BSTAR":"0.00007050300000","TLE_LINE2":"2 47795  53.0542 228.2448 0001487  75.1674 284.9480 15.06408937 83653","REV_AT_EPOCH":"8365","EPHEMERIS_TYPE":"0","MEAN_MOTION_DOT":"0.00000769","MEAN_MOTION":"15.06408937","ELEMENT_SET_NO":"999","NORAD_CAT_ID":"47795","DECAY_DATE":null,"TLE_LINE1":"1 47795U 21018J   22247.35697872  .00000769  00000-0  70503-4 0  9999","OBJECT_TYPE":"PAYLOAD","OBJECT_NAME":"STARLINK-2347","CENTER_NAME":"EARTH","FILE":"3557975","GP_ID":"211716563","COUNTRY_CODE":"US","APOAPSIS":"548.216","OBJECT_ID":"2021-018J","ECCENTRICITY":"0.00014870","EPOCH":"2022-09-04T08:34:02.961408","INCLINATION":"53.0542","PERIOD":"95.592","SITE":"AFETR","LAUNCH_DATE":"2021-03-11","ARG_OF_PERICENTER":"75.1674","TIME_SYSTEM":"UTC","MEAN_ANOMALY":"284.9480","RA_OF_ASC_NODE":"228.2448"},{"LAUNCH_DATE":"2021-03-11","SITE":"AFETR","PERIOD":"95.592","ECCENTRICITY":"0.00016140","EPOCH":"2022-09-04T15:17:26.786112","INCLINATION":"53.0521","RA_OF_ASC_NODE":"226.9818","TIME_SYSTEM":"UTC","MEAN_ANOMALY":"295.0936","ARG_OF_PERICENTER":"65.0221","ELEMENT_SET_NO":"999","MEAN_MOTION_DOT":"0.00003797","MEAN_MOTION":"15.06408460","EPHEMERIS_TYPE":"0","BSTAR":"0.00027362000000","MEAN_MOTION_DDOT":"0.0000000000000","REV_AT_EPOCH":"8364","TLE_LINE2":"2 47796  53.0521 226.9818 0001614  65.0221 295.0936 15.06408460 83644","RCS_SIZE":"LARGE","SEMIMAJOR_AXIS":"6925.323","REF_FRAME":"TEME","MEAN_ELEMENT_THEORY":"SGP4","PERIAPSIS":"546.070","CLASSIFICATION_TYPE":"U","OBJECT_ID":"2021-018K","COUNTRY_CODE":"US","APOAPSIS":"548.305","FILE":"3558394","GP_ID":"211750130","OBJECT_TYPE":"PAYLOAD","TLE_LINE1":"1 47796U 21018K   22247.63711558  .00003797  00000-0  27362-3 0  9997","OBJECT_NAME":"STARLINK-2373","CENTER_NAME":"EARTH","DECAY_DATE":null,"NORAD_CAT_ID":"47796"},{"LAUNCH_DATE":"2021-03-11","PERIOD":"95.591","SITE":"AFETR","INCLINATION":"53.0546","ECCENTRICITY":"0.00014320","EPOCH":"2022-09-04T17:45:24.353280","RA_OF_ASC_NODE":"251.5250","MEAN_ANOMALY":"280.2399","TIME_SYSTEM":"UTC","ARG_OF_PERICENTER":"79.8751","MEAN_MOTION_DOT":"0.00004477","MEAN_MOTION":"15.06412958","ELEMENT_SET_NO":"999","REV_AT_EPOCH":"8330","TLE_LINE2":"2 47797  53.0546 251.5250 0001432  79.8751 280.2399 15.06412958 83304","MEAN_MOTION_DDOT":"0.0000000000000","BSTAR":"0.00031918000000","EPHEMERIS_TYPE":"0","RCS_SIZE":"LARGE","PERIAPSIS":"546.182","CLASSIFICATION_TYPE":"U","MEAN_ELEMENT_THEORY":"SGP4","REF_FRAME":"TEME","SEMIMAJOR_AXIS":"6925.309","APOAPSIS":"548.166","COUNTRY_CODE":"US","OBJECT_ID":"2021-018L","GP_ID":"211750378","FILE":"3558394","TLE_LINE1":"1 47797U 21018L   22247.73986520  .00004477  00000-0  31918-3 0  9990","OBJECT_NAME":"STARLINK-2377","OBJECT_TYPE":"PAYLOAD","CENTER_NAME":"EARTH","NORAD_CAT_ID":"47797","DECAY_DATE":null},{"ARG_OF_PERICENTER":"70.2900","RA_OF_ASC_NODE":"226.9373","TIME_SYSTEM":"UTC","MEAN_ANOMALY":"289.8252","ECCENTRICITY":"0.00015100","EPOCH":"2022-09-04T15:33:21.248640","INCLINATION":"53.0539","LAUNCH_DATE":"2021-03-11","SITE":"AFETR","PERIOD":"95.591","CENTER_NAME":"EARTH","TLE_LINE1":"1 47798U 21018M   22247.64816260  .00001427  00000-0  11466-3 0  9992","OBJECT_TYPE":"PAYLOAD","OBJECT_NAME":"STARLINK-2379","DECAY_DATE":null,"NORAD_CAT_ID":"47798","OBJECT_ID":"2021-018M","COUNTRY_CODE":"US","APOAPSIS":"548.214","FILE":"3558394","GP_ID":"211751616","RCS_SIZE":"LARGE","SEMIMAJOR_AXIS":"6925.303","REF_FRAME":"TEME","MEAN_ELEMENT_THEORY":"SGP4","PERIAPSIS":"546.123","CLASSIFICATION_TYPE":"U","MEAN_MOTION_DOT":"0.00001427","MEAN_MOTION":"15.06414767","ELEMENT_SET_NO":"999","EPHEMERIS_TYPE":"0","BSTAR":"0.00011466000000","MEAN_MOTION_DDOT":"0.0000000000000","REV_AT_EPOCH":"8364","TLE_LINE2":"2 47798  53.0539 226.9373 0001510  70.2900 289.8252 15.06414767 83647"}];
